BEIDOU 3 (C01)          
1 36287U 10001A   21283.57688042 -.00000286  00000-0  00000-0 0  9991
2 36287   1.6733  41.0056 0002706  79.1456 247.3848  1.00271310 43009
BEIDOU 5 (C06)          
1 36828U 10036A   21283.54151212 -.00000119  00000-0  00000-0 0  9996
2 36828  54.1812 178.5315 0023183 179.6646 323.3138  1.00270348 41076
BEIDOU 6 (C04)          
1 37210U 10057A   21283.57601053 -.00000118  00000-0  00000-0 0  9990
2 37210   0.7404  37.6048 0004400 144.3711 204.7416  1.00273229 40135
BEIDOU 7 (C07)          
1 37256U 10068A   21283.53790679 -.00000191  00000-0  00000-0 0  9992
2 37256  50.6618 292.6322 0017829 189.5069 199.7882  1.00272582 39645
BEIDOU 8 (C08)          
1 37384U 11013A   21282.81160294 -.00000175  00000-0  00000-0 0  9991
2 37384  59.9375  56.7543 0019132 181.2892 179.0958  1.00275948 38514
BEIDOU 9 (C09)          
1 37763U 11038A   21283.02833668 -.00000071  00000-0  00000-0 0  9990
2 37763  54.4687 180.9978 0086531 226.6619  75.6972  1.00286571 37487
BEIDOU 10 (C10)         
1 37948U 11073A   21283.49158337 -.00000143  00000-0  00000-0 0  9998
2 37948  50.7670 292.2547 0078857 217.7936 142.1116  1.00267229 36250
BEIDOU 11 (C05)         
1 38091U 12008A   21283.56507944  .00000051  00000-0  00000-0 0  9994
2 38091   1.7983  70.2415 0002981 315.7554 255.5258  1.00273509 35322
BEIDOU 12 (C11)         
1 38250U 12018A   21283.36163848 -.00000091  00000-0  00000-0 0  9996
2 38250  56.7450   1.8212 0023405 245.2696  49.7418  1.86234446 64426
BEIDOU 13 (C12)         
1 38251U 12018B   21283.29131438 -.00000090  00000-0  00000-0 0  9998
2 38251  56.6658   1.1648 0014262 244.4326  47.7629  1.86234199 64421
BEIDOU 15 (C14)         
1 38775U 12050B   21283.41735483  .00000037  00000-0  00000-0 0  9999
2 38775  55.2613 120.1076 0012384 329.2771 244.6480  1.86231380 61805
BEIDOU 16 (C02)         
1 38953U 12059A   21283.56092179 -.00000182  00000-0  00000-0 0  9992
2 38953   1.3703  84.1191 0009359 281.6576 299.6576  1.00272079 32893
BEIDOU 17 (C31)         
1 40549U 15019A   21283.56275338 -.00000154  00000-0  00000-0 0  9994
2 40549  52.3056 315.6590 0038200 189.5039 169.5538  1.00296454 23926
BEIDOU 18 (C57)         
1 40748U 15037A   21283.43042008 -.00000092  00000-0  00000-0 0  9998
2 40748  55.9243   0.1793 0001036  17.6719 277.5642  1.86233563 42257
BEIDOU 19 (C58)         
1 40749U 15037B   21283.22529535 -.00000091  00000-0  00000-0 0  9990
2 40749  55.9276   0.1739 0003417 289.2335   4.0577  1.86232216 42243
BEIDOU 20 (C18)         
1 40938U 15053A   21283.27650080 -.00000115  00000-0  00000-0 0  9990
2 40938  51.8915 278.7441 0047693 196.6992  97.3891  1.00257067 22198
BEIDOU IGSO-6 (C13)     
1 41434U 16021A   21283.29585957 -.00000147  00000-0  00000-0 0  9995
2 41434  57.7341  55.4416 0043380 210.6557 313.6620  1.00290528 20329
BEIDOU-2 G7 (C03)       
1 41586U 16037A   21283.49437434 -.00000360  00000-0  00000-0 0  9995
2 41586   1.9452  69.2615 0008499  12.6305 225.8769  1.00277047 19639
BEIDOU-3 M1 (C19)       
1 43001U 17069A   21283.30387692  .00000038  00000-0  00000-0 0  9996
2 43001  55.4152 120.0771 0007691 293.7944   0.0851  1.86231826 26730
BEIDOU-3 M2 (C20)       
1 43002U 17069B   21283.30793847  .00000038  00000-0  00000-0 0  9990
2 43002  55.4150 120.1128 0006430 324.1005  15.8064  1.86231469 26725
BEIDOU-3 M3 (C27)       
1 43107U 18003A   21283.49653987 -.00000093  00000-0  00000-0 0  9997
2 43107  55.3699   1.2042 0003693  63.1238 209.1610  1.86232620 25496
BEIDOU-3 M4 (C28)       
1 43108U 18003B   21283.43072275 -.00000093  00000-0  00000-0 0  9997
2 43108  55.3637   1.1958 0003885 230.6022  42.7383  1.86232664 25495
BEIDOU-3 M5 (C21)       
1 43207U 18018A   21282.39638745  .00000045  00000-0  00000-0 0  9993
2 43207  55.3740 120.2310 0004879   1.5474 358.5287  1.86231625 24862
BEIDOU-3 M6 (C22)       
1 43208U 18018B   21282.46311195  .00000045  00000-0  00000-0 0  9999
2 43208  55.3730 120.2340 0005705 311.0177  49.0066  1.86231765 24865
BEIDOU-3 M7 (C29)       
1 43245U 18029A   21283.22619081 -.00000091  00000-0  00000-0 0  9994
2 43245  55.2959 358.9988 0001048 189.2574 172.0422  1.86232777 24034
BEIDOU-3 M8 (C30)       
1 43246U 18029B   21283.56366795 -.00000093  00000-0  10000-3 0  9999
2 43246  55.2926 359.0175 0002918 343.0976 290.7721  1.86233170 24029
BEIDOU IGSO-7 (C16)     
1 43539U 18057A   21282.90162164 -.00000121  00000-0  00000-0 0  9994
2 43539  55.0626 177.9346 0040886 223.7564  54.2111  1.00287097 11990
BEIDOU-3 M9 (C23)       
1 43581U 18062A   21283.58675860  .00000029  00000-0  00000-0 0  9990
2 43581  54.3609 240.6464 0005910 277.1553 222.5219  1.86231960 21777
BEIDOU-3 M10 (C24)      
1 43582U 18062B   21283.49674828  .00000029  00000-0  00000-0 0  9994
2 43582  54.3609 240.6391 0005672 335.2202 195.5786  1.86232387 21771
BEIDOU-3 M11 (C25)      
1 43602U 18067A   21283.56788497  .00000029  00000-0  00000-0 0  9998
2 43602  54.4386 239.2291 0007073 352.9988 267.4691  1.86231612 21262
BEIDOU-3 M12 (C26)      
1 43603U 18067B   21283.59877016  .00000029  00000-0  00000-0 0  9998
2 43603  54.4356 239.1960 0004607 337.5858 214.0256  1.86231585 21283
BEIDOU-3 M13 (C32)      
1 43622U 18072A   21283.23846620  .00000038  00000-0  00000-0 0  9993
2 43622  55.3397 119.7666 0004234 289.7436  50.2826  1.86231909 20788
BEIDOU-3 M14 (C33)      
1 43623U 18072B   21283.10483095  .00000039  00000-0  00000-0 0  9994
2 43623  55.3412 119.7628 0003143 336.1606   4.5014  1.86231897 20786
BEIDOU-3 M15 (C34)      
1 43647U 18078A   21282.86662214 -.00000089  00000-0  10000-3 0  9990
2 43647  55.1900 359.1925 0005251 352.7024  83.4775  1.86232768 20296
BEIDOU-3 M16 (C35)      
1 43648U 18078B   21283.29336550 -.00000092  00000-0  00000-0 0  9990
2 43648  55.1857 359.1831 0003099  11.1543 259.3957  1.86232424 20312
BEIDOU-3 G1 (C59)       
1 43683U 18085A   21283.54771580 -.00000284  00000-0  00000-0 0  9994
2 43683   0.9073 211.3642 0004209  23.6757 121.4639  1.00276433 10901
BEIDOU-3 M17 (C36)      
1 43706U 18093A   21283.04276113  .00000030  00000-0  00000-0 0  9994
2 43706  54.4423 240.5325 0011035 276.0639  83.7871  1.86231602 19674
BEIDOU-3 M18 (C37)      
1 43707U 18093B   21283.23713841  .00000030  00000-0  00000-0 0  9990
2 43707  54.4426 240.5161 0009961 294.5209 286.6228  1.86232233 19669
BEIDOU-3 IGSO-1 (C38)   
1 44204U 19023A   21283.66453168 -.00000211  00000-0  00000-0 0  9999
2 44204  56.1933  55.6686 0022920 185.9411 135.6514  1.00286748  9205
BEIDOU-2 G8             
1 44231U 19027A   21283.65570541 -.00000255  00000-0  00000-0 0  9995
2 44231   0.3252  41.4598 0007281 164.1752 194.3329  1.00266867  8929
BEIDOU-3 IGSO-2 (C39)   
1 44337U 19035A   21283.52900056 -.00000126  00000-0  00000-0 0  9992
2 44337  55.0950 173.9599 0020215 180.9988 334.4146  1.00277566  8549
BEIDOU-3 M23 (C45)      
1 44542U 19061A   21283.30719855  .00000030  00000-0  10000-3 0  9997
2 44542  54.6679 240.6159 0009409 323.7093 257.0716  1.86231508 13921
BEIDOU-3 M24 (C46)      
1 44543U 19061B   21283.38256066  .00000030  00000-0  10000-3 0  9996
2 44543  54.6657 240.5823 0006870 309.3756 232.9330  1.86231910 13921
BEIDOU-3 IGSO-3         
1 44709U 19073A   21283.53224245 -.00000167  00000-0  00000-0 0  9992
2 44709  57.6616 298.9724 0020215 186.1299 205.7056  1.00282541  7302
BEIDOU-3 M21            
1 44793U 19078A   21283.34743244 -.00000092  00000-0  10000-3 0  9995
2 44793  55.0390 359.2271 0005016   3.2168 349.6181  1.86232588 12785
BEIDOU-3 M22            
1 44794U 19078B   21283.36117086 -.00000092  00000-0  00000-0 0  9993
2 44794  55.0131 359.2234 0003017 354.9228 278.3151  1.86233024 12781
BEIDOU-3 M19            
1 44864U 19090A   21283.46785667  .00000037  00000-0  00000-0 0  9990
2 44864  55.2744 119.9834 0014408 266.1108 273.2439  1.86231977 12378
BEIDOU-3 M20            
1 44865U 19090B   21283.35375536  .00000037  00000-0  00000-0 0  9999
2 44865  55.2770 120.0185 0012777 282.5803 270.1791  1.86231969 12346
BEIDOU-3 G2             
1 45344U 20017A   21283.53729998 -.00000149  00000-0  00000-0 0  9993
2 45344   2.2936 340.8871 0003128 173.6515 138.2962  1.00271225  6105
BEIDOU-3 G3             
1 45807U 20040A   21283.56615488 -.00000361  00000-0  00000-0 0  9990
2 45807   2.0228 299.1557 0010556 337.8667  56.6666  1.00266460  4931
